[{"OBJECT_NAME":"ASTROCAST-0403","OBJECT_ID":"2023-001DG","EPOCH":"2026-03-09T19:45:35.762976","MEAN_MOTION":15.28004949,"ECCENTRICITY":0.00047706,"INCLINATION":97.5604,"RA_OF_ASC_NODE":161.3228,"ARG_OF_PERICENTER":338.0704,"MEAN_ANOMALY":22.033,"EPHEMERIS_TYPE":0,"CLASSIFICATION_TYPE":"U","NORAD_CAT_ID":55111,"ELEMENT_SET_NO":999,"REV_AT_EPOCH":12937,"BSTAR":0.0005131719,"MEAN_MOTION_DOT":0.00013959,"MEAN_MOTION_DDOT":0},{"OBJECT_NAME":"STARLINK-31695","OBJECT_ID":"2024-062C","EPOCH":"2026-03-09T20:03:13.632480","MEAN_MOTION":15.3018947,"ECCENTRICITY":0.00013183,"INCLINATION":53.1605,"RA_OF_ASC_NODE":254.9954,"ARG_OF_PERICENTER":85.3607,"MEAN_ANOMALY":274.7545,"EPHEMERIS_TYPE":0,"CLASSIFICATION_TYPE":"U","NORAD_CAT_ID":59376,"ELEMENT_SET_NO":999,"REV_AT_EPOCH":10965,"BSTAR":1.6423686e-5,"MEAN_MOTION_DOT":1.27e-6,"MEAN_MOTION_DDOT":0}]
