ASTROCAST-0403          
1 55111U 23001DG  26068.82333059  .00013959  00000+0  51317-3 0  9990
2 55111  97.5604 161.3228 0004771 338.0704  22.0330 15.28004949129377
STARLINK-31695          
1 59376U 24062C   26068.83557445  .00000127  00000+0  16424-4 0  9997
2 59376  53.1605 254.9954 0001318  85.3607 274.7545 15.30189470109655
